{
  "type": "FeatureCollection",
  "features": [
    {
      "type": "Feature",
      "properties": {
        "norad_id": 65731,
        "name": "1998-067XK",
        "group": "stations",
        "lat": 26.456211198817694,
        "lon": -112.75519642707131,
        "alt_km": 366.0861576100715,
        "timestamp": "2025-12-21T22:41:40.199402+00:00",
        "meta_object_name": "1998-067XK",
        "meta_object_id": "1998-067XK",
        "meta_epoch": "2025-12-21T12:53:45.326688",
        "meta_mean_motion": 15.6733538,
        "meta_eccentricity": 0.0004817,
        "meta_inclination": 51.6299,
        "meta_ra_of_asc_node": 92.5431,
        "meta_arg_of_pericenter": 301.7878,
        "meta_mean_anomaly": 58.2649,
        "meta_ephemeris_type": 0,
        "meta_classification_type": "U",
        "meta_norad_cat_id": 65731,
        "meta_element_set_no": 999,
        "meta_rev_at_epoch": 1452,
        "meta_bstar": 0.00084814787,
        "meta_mean_motion_dot": 0.00093893,
        "meta_mean_motion_ddot": 0,
        "tle_line1": "1 65731U 98067XK  25355.53733017  .00093893  00000+0  84815-3 0  9991",
        "tle_line2": "2 65731  51.6299  92.5431 0004817 301.7878  58.2649 15.67335380 14521"
      },
      "geometry": {
        "type": "Point",
        "coordinates": [
          -112.75519642707131,
          26.456211198817694
        ]
      }
    },
    {
      "type": "Feature",
      "properties": {
        "norad_id": 65732,
        "name": "RSP-03",
        "group": "stations",
        "lat": -32.22904084854616,
        "lon": -60.48942984506367,
        "alt_km": 359.97534180934053,
        "timestamp": "2025-12-21T22:41:40.199414+00:00",
        "meta_object_name": "RSP-03",
        "meta_object_id": "1998-067XL",
        "meta_epoch": "2025-12-21T12:35:17.944800",
        "meta_mean_motion": 15.70746693,
        "meta_eccentricity": 0.00057254,
        "meta_inclination": 51.6266,
        "meta_ra_of_asc_node": 91.6927,
        "meta_arg_of_pericenter": 306.8902,
        "meta_mean_anomaly": 53.1571,
        "meta_ephemeris_type": 0,
        "meta_classification_type": "U",
        "meta_norad_cat_id": 65732,
        "meta_element_set_no": 999,
        "meta_rev_at_epoch": 1454,
        "meta_bstar": 0.00095100217,
        "meta_mean_motion_dot": 0.00121759,
        "meta_mean_motion_ddot": 0,
        "tle_line1": "1 65732U 98067XL  25355.52451325  .00121759  00000+0  95100-3 0  9992",
        "tle_line2": "2 65732  51.6266  91.6927 0005725 306.8902  53.1571 15.70746693 14546"
      },
      "geometry": {
        "type": "Point",
        "coordinates": [
          -60.48942984506367,
          -32.22904084854616
        ]
      }
    },
    {
      "type": "Feature",
      "properties": {
        "norad_id": 65733,
        "name": "GHS-01",
        "group": "stations",
        "lat": 11.090840071938569,
        "lon": 96.6535569578821,
        "alt_km": 328.6999294056086,
        "timestamp": "2025-12-21T22:41:40.199425+00:00",
        "meta_object_name": "GHS-01",
        "meta_object_id": "1998-067XM",
        "meta_epoch": "2025-12-21T07:26:29.308416",
        "meta_mean_motion": 15.78445011,
        "meta_eccentricity": 0.00086328,
        "meta_inclination": 51.6276,
        "meta_ra_of_asc_node": 91.0058,
        "meta_arg_of_pericenter": 334.04,
        "meta_mean_anomaly": 26.0167,
        "meta_ephemeris_type": 0,
        "meta_classification_type": "U",
        "meta_norad_cat_id": 65733,
        "meta_element_set_no": 999,
        "meta_rev_at_epoch": 1453,
        "meta_bstar": 0.0012619475,
        "meta_mean_motion_dot": 0.00229224,
        "meta_mean_motion_ddot": 0,
        "tle_line1": "1 65733U 98067XM  25355.31006144  .00229224  00000+0  12619-2 0  9994",
        "tle_line2": "2 65733  51.6276  91.0058 0008632 334.0400  26.0167 15.78445011 14530"
      },
      "geometry": {
        "type": "Point",
        "coordinates": [
          96.6535569578821,
          11.090840071938569
        ]
      }
    },
    {
      "type": "Feature",
      "properties": {
        "norad_id": 65941,
        "name": "YOTSUBA-KULOVER",
        "group": "stations",
        "lat": 36.29850116633819,
        "lon": 129.25566570866786,
        "alt_km": 380.6598948415458,
        "timestamp": "2025-12-21T22:41:40.199435+00:00",
        "meta_object_name": "YOTSUBA-KULOVER",
        "meta_object_id": "1998-067XN",
        "meta_epoch": "2025-12-21T13:15:51.125184",
        "meta_mean_motion": 15.60566136,
        "meta_eccentricity": 0.0002004,
        "meta_inclination": 51.6297,
        "meta_ra_of_asc_node": 95.6446,
        "meta_arg_of_pericenter": 334.8286,
        "meta_mean_anomaly": 25.2609,
        "meta_ephemeris_type": 0,
        "meta_classification_type": "U",
        "meta_norad_cat_id": 65941,
        "meta_element_set_no": 999,
        "meta_rev_at_epoch": 1123,
        "meta_bstar": 0.00075706467,
        "meta_mean_motion_dot": 0.00063759,
        "meta_mean_motion_ddot": 0,
        "tle_line1": "1 65941U 98067XN  25355.55267506  .00063759  00000+0  75706-3 0  9998",
        "tle_line2": "2 65941  51.6297  95.6446 0002004 334.8286  25.2609 15.60566136 11231"
      },
      "geometry": {
        "type": "Point",
        "coordinates": [
          129.25566570866786,
          36.29850116633819
        ]
      }
    },
    {
      "type": "Feature",
      "properties": {
        "norad_id": 65942,
        "name": "BOTAN",
        "group": "stations",
        "lat": 28.355487715329655,
        "lon": -112.59756782978044,
        "alt_km": 372.5750938808069,
        "timestamp": "2025-12-21T22:41:40.199445+00:00",
        "meta_object_name": "BOTAN",
        "meta_object_id": "1998-067XP",
        "meta_epoch": "2025-12-21T12:53:25.393344",
        "meta_mean_motion": 15.64619472,
        "meta_eccentricity": 0.00030368,
        "meta_inclination": 51.6287,
        "meta_ra_of_asc_node": 94.7896,
        "meta_arg_of_pericenter": 312.4061,
        "meta_mean_anomaly": 47.6677,
        "meta_ephemeris_type": 0,
        "meta_classification_type": "U",
        "meta_norad_cat_id": 65942,
        "meta_element_set_no": 999,
        "meta_rev_at_epoch": 1124,
        "meta_bstar": 0.0010329354,
        "meta_mean_motion_dot": 0.00102689,
        "meta_mean_motion_ddot": 0,
        "tle_line1": "1 65942U 98067XP  25355.53709946  .00102689  00000+0  10329-2 0  9991",
        "tle_line2": "2 65942  51.6287  94.7896 0003036 312.4061  47.6677 15.64619472 11249"
      },
      "geometry": {
        "type": "Point",
        "coordinates": [
          -112.59756782978044,
          28.355487715329655
        ]
      }
    },
    {
      "type": "Feature",
      "properties": {
        "norad_id": 65943,
        "name": "E-KAGAKU-1",
        "group": "stations",
        "lat": 35.899650365741024,
        "lon": 128.66678940368908,
        "alt_km": 381.59544973698576,
        "timestamp": "2025-12-21T22:41:40.199455+00:00",
        "meta_object_name": "E-KAGAKU-1",
        "meta_object_id": "1998-067XQ",
        "meta_epoch": "2025-12-21T11:43:47.711424",
        "meta_mean_motion": 15.60558335,
        "meta_eccentricity": 0.00011984,
        "meta_inclination": 51.6316,
        "meta_ra_of_asc_node": 95.9734,
        "meta_arg_of_pericenter": 280.9822,
        "meta_mean_anomaly": 79.1036,
        "meta_ephemeris_type": 0,
        "meta_classification_type": "U",
        "meta_norad_cat_id": 65943,
        "meta_element_set_no": 999,
        "meta_rev_at_epoch": 1122,
        "meta_bstar": 0.00073910068,
        "meta_mean_motion_dot": 0.00062201,
        "meta_mean_motion_ddot": 0,
        "tle_line1": "1 65943U 98067XQ  25355.48874666  .00062201  00000+0  73910-3 0  9999",
        "tle_line2": "2 65943  51.6316  95.9734 0001198 280.9822  79.1036 15.60558335 11221"
      },
      "geometry": {
        "type": "Point",
        "coordinates": [
          128.66678940368908,
          35.899650365741024
        ]
      }
    },
    {
      "type": "Feature",
      "properties": {
        "norad_id": 66052,
        "name": "HRC MONOBLOCK CAMERA",
        "group": "stations",
        "lat": -20.642282288071506,
        "lon": -67.04995860898055,
        "alt_km": 404.40281741156195,
        "timestamp": "2025-12-21T22:41:40.199465+00:00",
        "meta_object_name": "HRC MONOBLOCK CAMERA",
        "meta_object_id": "1998-067XR",
        "meta_epoch": "2025-12-21T14:05:45.900384",
        "meta_mean_motion": 15.54720233,
        "meta_eccentricity": 0.00023274,
        "meta_inclination": 51.631,
        "meta_ra_of_asc_node": 97.3733,
        "meta_arg_of_pericenter": 226.367,
        "meta_mean_anomaly": 133.7128,
        "meta_ephemeris_type": 0,
        "meta_classification_type": "U",
        "meta_norad_cat_id": 66052,
        "meta_element_set_no": 999,
        "meta_rev_at_epoch": 1021,
        "meta_bstar": 0.00047682039,
        "meta_mean_motion_dot": 0.00031903,
        "meta_mean_motion_ddot": 0,
        "tle_line1": "1 66052U 98067XR  25355.58733681  .00031903  00000+0  47682-3 0  9995",
        "tle_line2": "2 66052  51.6310  97.3733 0002327 226.3670 133.7128 15.54720233 10210"
      },
      "geometry": {
        "type": "Point",
        "coordinates": [
          -67.04995860898055,
          -20.642282288071506
        ]
      }
    }
  ]
}